OBJECT_NAME,OBJECT_ID,EPOCH,MEAN_MOTION,ECCENTRICITY,INCLINATION,RA_OF_ASC_NODE,ARG_OF_PERICENTER,MEAN_ANOMALY,EPHEMERIS_TYPE,CLASSIFICATION_TYPE,NORAD_CAT_ID,ELEMENT_SET_NO,REV_AT_EPOCH,BSTAR,MEAN_MOTION_DOT,MEAN_MOTION_DDOT
ALOS-2,2014-029A,2026-06-26T06:28:13.905696,14.79469184,.00015974,97.9220,274.3033,89.7314,270.4081,0,U,39766,999,65292,.12138619E-3,.855E-5,0
KAZEOSAT 2,2014-033A,2026-06-26T06:09:03.626208,14.85481723,.00071562,97.5410,16.3891,295.7525,64.2952,0,U,40010,999,65030,.14328233E-3,.1186E-4,0
HODOYOSHI-4,2014-033B,2026-06-26T07:30:56.168640,14.88144461,.00221248,97.5455,1.6950,276.1937,83.6760,0,U,40011,999,65016,.10607662E-3,.928E-5,0
DEIMOS-2,2014-033D,2026-06-26T07:02:37.944672,14.93749196,.00012774,97.5830,51.4623,54.3322,305.8017,0,U,40013,999,63908,.10217067E-3,.1028E-4,0
HODOYOSHI-3,2014-033F,2026-06-26T05:04:51.179808,14.85405578,.00319322,97.6425,339.8893,327.0759,32.8468,0,U,40015,999,64896,.12540609E-3,.1036E-4,0
SPOT 7,2014-034A,2026-06-26T06:58:27.660288,14.60965490,.00013451,98.0628,239.5478,94.8218,265.3137,0,U,40053,999,63846,.94044699E-4,.416E-5,0
SKYSAT-B,2014-037D,2026-06-25T20:48:08.820000,14.88047756,.00042361,98.3841,136.3265,243.9459,116.1320,0,U,40072,999,64725,.13738362E-3,.1201E-4,0
WORLDVIEW-3 (WV-3),2014-048A,2026-06-26T06:19:41.105280,14.85035695,.00002495,97.8564,251.9712,18.7438,341.3786,0,U,40115,999,64325,.10241976E-3,.821E-5,0
GAOFEN-2,2014-049A,2026-06-26T07:09:03.765600,14.80908142,.00067214,98.0109,241.4966,193.1658,166.9379,0,U,40118,999,64058,.90090746E-4,.643E-5,0
YAOGAN-21,2014-053A,2026-06-26T06:35:34.243296,15.26502682,.00097101,97.1474,217.1207,67.5391,292.6876,0,U,40143,999,65634,.3728891E-3,.9681E-4,0
YAOGAN-22,2014-063A,2026-06-26T03:49:59.200608,13.15531151,.00065444,100.7734,328.5823,165.4830,194.6470,0,U,40275,999,56099,.40508509E-4,-.32E-6,0
ASNARO,2014-070A,2026-06-26T05:55:48.886176,15.19559893,.00063831,97.3451,253.1165,138.0316,222.1409,0,U,40298,999,64538,.37426696E-3,.7899E-4,0
YAOGAN-24,2014-072A,2026-06-26T07:12:37.329984,14.76096180,.00132691,98.1494,314.7159,232.7391,127.2608,0,U,40310,999,62506,.98924713E-4,.63E-5,0
CBERS 4,2014-079A,2026-06-26T07:22:53.528736,14.35510891,.00015592,98.3531,233.8531,55.0460,305.0872,0,U,40336,999,60526,.9265585E-5,-.16E-6,0
YAOGAN-26,2014-088A,2026-06-26T06:01:24.697920,15.47714589,.00049292,97.0642,177.2485,45.1077,315.0574,0,U,40362,999,63910,.67989574E-3,.35214E-3,0
SMAP,2015-003A,2026-06-26T05:48:54.895392,14.63373950,.0001424,98.1276,184.2085,98.9327,261.2036,0,U,40376,999,60894,.91290573E-4,.425E-5,0
KOMPSAT-3A,2015-014A,2026-06-26T06:08:15.366624,15.54418766,.00571378,97.6882,169.2829,142.0963,218.4334,0,U,40536,999,62322,.43031079E-3,.30311E-3,0
SENTINEL-2A,2015-028A,2026-06-26T07:20:04.422336,14.30817929,.00011513,98.5682,252.0279,92.1480,267.9835,0,U,40697,999,57503,.64218945E-4,.125E-5,0
GAOFEN-8,2015-030A,2026-06-26T06:40:32.960064,15.46267700,.00095096,97.6904,11.1961,155.3586,204.8119,0,U,40701,999,61285,.44376121E-3,.21817E-3,0
CARBONITE 1 (CBNT-1),2015-032D,2026-06-26T06:54:09.009792,14.83610040,.00128988,97.6512,354.9730,264.9413,95.0329,0,U,40718,999,59069,.13083524E-3,.1029E-4,0
YAOGAN-27,2015-040A,2026-06-26T07:16:27.813216,13.16072539,.00079218,100.1154,163.2901,188.2932,171.8052,0,U,40878,999,51886,.107468E-2,.366E-5,0
GAOFEN-9 01,2015-047A,2026-06-26T07:22:03.916128,14.82900294,.00288333,97.6271,212.5873,109.2675,251.1662,0,U,40894,999,58154,.12649407E-3,.982E-5,0
YAOGAN-28,2015-064A,2026-06-26T07:08:34.776672,15.27529420,.00114136,97.3079,315.3743,152.4061,207.7787,0,U,41026,999,59207,.25915748E-3,.6919E-4,0
YAOGAN-29,2015-069A,2026-06-26T06:51:49.017600,14.83089930,.000213,98.0029,205.9330,39.1837,320.9530,0,U,41038,999,57197,.1747233E-5,-.4E-6,0
KENT RIDGE 1,2015-077B,2026-06-26T06:22:46.632864,15.23181556,.00081864,14.9781,198.4677,6.6929,353.3502,0,U,41167,999,58248,.13648159E-3,.4091E-4,0
GAOFEN-4,2015-083A,2026-06-25T21:39:16.789824,1.00271078,.00040511,0.3805,83.9226,113.8387,146.7998,0,U,41194,999,3861,0,-.324E-5,0
JASON-3,2016-002A,2026-06-26T00:17:55.355136,12.87556148,.00084177,66.0414,107.2818,272.3355,87.6700,0,U,41240,999,48838,-.53182995E-4,-.76E-6,0
SENTINEL-3A,2016-011A,2026-06-26T06:19:10.960320,14.26734969,.00014331,98.6246,244.5165,97.0827,263.0517,0,U,41335,999,53935,.5607708E-4,.92E-6,0
ZIYUAN 3-02 (ZY 3-02),2016-033A,2026-06-26T06:24:29.536128,15.21260769,.00124551,97.3838,252.8666,255.6821,104.3032,0,U,41556,999,55936,.25590951E-3,.566E-4,0
CARTOSAT-2C,2016-040A,2026-06-26T06:45:34.723296,15.19259732,.00105295,97.4484,237.1343,103.5733,256.6675,0,U,41599,999,55509,.22713223E-3,.4727E-4,0
