ALOS-2                  
1 39766U 14029A   26177.26960539  .00000855  00000+0  12139-3 0  9996
2 39766  97.9220 274.3033 0001597  89.7314 270.4081 14.79469184652927
KAZEOSAT 2              
1 40010U 14033A   26177.25629197  .00001186  00000+0  14328-3 0  9996
2 40010  97.5410  16.3891 0007156 295.7525  64.2952 14.85481723650300
HODOYOSHI-4             
1 40011U 14033B   26177.31315010  .00000928  00000+0  10608-3 0  9990
2 40011  97.5455   1.6950 0022124 276.1937  83.6760 14.88144461650169
DEIMOS-2                
1 40013U 14033D   26177.29349473  .00001028  00000+0  10217-3 0  9997
2 40013  97.5830  51.4623 0001277  54.3322 305.8017 14.93749196639082
HODOYOSHI-3             
1 40015U 14033F   26177.21170347  .00001036  00000+0  12541-3 0  9994
2 40015  97.6425 339.8893 0031932 327.0759  32.8468 14.85405578648960
SPOT 7                  
1 40053U 14034A   26177.29059792  .00000416  00000+0  94045-4 0  9996
2 40053  98.0628 239.5478 0001345  94.8218 265.3137 14.60965490638468
SKYSAT-B                
1 40072U 14037D   26176.86676875  .00001201  00000+0  13738-3 0  9991
2 40072  98.3841 136.3265 0004236 243.9459 116.1320 14.88047756647253
WORLDVIEW-3 (WV-3)      
1 40115U 14048A   26177.26367020  .00000821  00000+0  10242-3 0  9999
2 40115  97.8564 251.9712 0000249  18.7438 341.3786 14.85035695643253
GAOFEN-2                
1 40118U 14049A   26177.29796025  .00000643  00000+0  90091-4 0  9990
2 40118  98.0109 241.4966 0006721 193.1658 166.9379 14.80908142640585
YAOGAN-21               
1 40143U 14053A   26177.27470189  .00009681  00000+0  37289-3 0  9991
2 40143  97.1474 217.1207 0009710  67.5391 292.6876 15.26502682656345
YAOGAN-22               
1 40275U 14063A   26177.15971297 -.00000032  00000+0  40509-4 0  9993
2 40275 100.7734 328.5823 0006544 165.4830 194.6470 13.15531151560995
ASNARO                  
1 40298U 14070A   26177.24709359  .00007899  00000+0  37427-3 0  9995
2 40298  97.3451 253.1165 0006383 138.0316 222.1409 15.19559893645380
YAOGAN-24               
1 40310U 14072A   26177.30043206  .00000630  00000+0  98925-4 0  9998
2 40310  98.1494 314.7159 0013269 232.7391 127.2608 14.76096180625060
CBERS 4                 
1 40336U 14079A   26177.30756399 -.00000016  00000+0  92656-5 0  9992
2 40336  98.3531 233.8531 0001559  55.0460 305.0872 14.35510891605263
YAOGAN-26               
1 40362U 14088A   26177.25098030  .00035214  00000+0  67990-3 0  9994
2 40362  97.0642 177.2485 0004929  45.1077 315.0574 15.47714589639102
SMAP                    
1 40376U 15003A   26177.24230203  .00000425  00000+0  91291-4 0  9994
2 40376  98.1276 184.2085 0001424  98.9327 261.2036 14.63373950608940
KOMPSAT-3A              
1 40536U 15014A   26177.25573341  .00030311  00000+0  43031-3 0  9993
2 40536  97.6882 169.2829 0057137 142.0963 218.4334 15.54418766623222
SENTINEL-2A             
1 40697U 15028A   26177.30560674  .00000125  00000+0  64219-4 0  9999
2 40697  98.5682 252.0279 0001151  92.1480 267.9835 14.30817929575039
GAOFEN-8                
1 40701U 15030A   26177.27815926  .00021817  00000+0  44376-3 0  9999
2 40701  97.6904  11.1961 0009509 155.3586 204.8119 15.46267700612859
CARBONITE 1 (CBNT-1)    
1 40718U 15032D   26177.28760428  .00001029  00000+0  13084-3 0  9991
2 40718  97.6512 354.9730 0012898 264.9413  95.0329 14.83610040590694
YAOGAN-27               
1 40878U 15040A   26177.30309969  .00000366  00000+0  10747-2 0  9994
2 40878 100.1154 163.2901 0007921 188.2932 171.8052 13.16072539518864
GAOFEN-9 01             
1 40894U 15047A   26177.30698977  .00000982  00000+0  12649-3 0  9997
2 40894  97.6271 212.5873 0028833 109.2675 251.1662 14.82900294581546
YAOGAN-28               
1 41026U 15064A   26177.29762473  .00006919  00000+0  25916-3 0  9992
2 41026  97.3079 315.3743 0011413 152.4061 207.7787 15.27529420592073
YAOGAN-29               
1 41038U 15069A   26177.28598400 -.00000040  00000+0  17472-5 0  9996
2 41038  98.0029 205.9330 0002130  39.1837 320.9530 14.83089930571971
KENT RIDGE 1            
1 41167U 15077B   26177.26581751  .00004091  00000+0  13648-3 0  9995
2 41167  14.9781 198.4677 0008186   6.6929 353.3502 15.23181556582483
GAOFEN-4                
1 41194U 15083A   26176.90227766 -.00000324  00000+0  00000+0 0  9995
2 41194   0.3805  83.9226 0004051 113.8387 146.7998  1.00271078 38616
JASON-3                 
1 41240U 16002A   26177.01244624 -.00000076  00000+0 -53183-4 0  9994
2 41240  66.0414 107.2818 0008417 272.3355  87.6700 12.87556148488384
SENTINEL-3A             
1 41335U 16011A   26177.26332130  .00000092  00000+0  56077-4 0  9997
2 41335  98.6246 244.5165 0001433  97.0827 263.0517 14.26734969539354
ZIYUAN 3-02 (ZY 3-02)   
1 41556U 16033A   26177.26700852  .00005660  00000+0  25591-3 0  9998
2 41556  97.3838 252.8666 0012455 255.6821 104.3032 15.21260769559362
CARTOSAT-2C             
1 41599U 16040A   26177.28165189  .00004727  00000+0  22713-3 0  9999
2 41599  97.4484 237.1343 0010529 103.5733 256.6675 15.19259732555093
